{
  "norad_id": 55772,
  "name": "STARLINK-5835",
  "history": [
    {
      "epoch": "2026-03-28T16:48:21.835872Z",
      "apogee_km": 574.3607144668558,
      "perigee_km": 569.6790887779234,
      "latitude_deg": 1.006024466375357e-05,
      "longitude_deg": 98.19938440740351,
      "height_km": 574.2929686281775,
      "semi_major_axis_km": 6950.156901622389,
      "eccentricity": 0.0003368,
      "inclination_deg": 70.0009,
      "raan_deg": 176.4073,
      "arg_perigee_deg": 273.7915,
      "mean_anomaly_deg": 86.2859,
      "mean_motion_rev_day": 14.98341638
    },
    {
      "epoch": "2026-03-30T05:39:27.798624Z",
      "apogee_km": 574.2808057066004,
      "perigee_km": 569.8208701709946,
      "latitude_deg": -3.561413797432219e-05,
      "longitude_deg": -99.96042000828749,
      "height_km": 574.4536773349943,
      "semi_major_axis_km": 6950.187837938797,
      "eccentricity": 0.00032085,
      "inclination_deg": 70.0013,
      "raan_deg": 172.5358,
      "arg_perigee_deg": 270.6401,
      "mean_anomaly_deg": 89.439,
      "mean_motion_rev_day": 14.98331634
    },
    {
      "epoch": "2026-03-30T13:40:08.053824Z",
      "apogee_km": 574.2696080710821,
      "perigee_km": 569.8319131859216,
      "latitude_deg": -2.1460070613383435e-05,
      "longitude_deg": 138.70164794672905,
      "height_km": 574.445291188428,
      "semi_major_axis_km": 6950.187760628502,
      "eccentricity": 0.00031925,
      "inclination_deg": 70.0014,
      "raan_deg": 171.6946,
      "arg_perigee_deg": 270.8576,
      "mean_anomaly_deg": 89.2217,
      "mean_motion_rev_day": 14.98331659
    },
    {
      "epoch": "2026-03-30T15:16:16.129056Z",
      "apogee_km": 574.3016628566338,
      "perigee_km": 569.800582024779,
      "latitude_deg": -3.72551147223232e-06,
      "longitude_deg": 114.43370585620784,
      "height_km": 574.4310892167211,
      "semi_major_axis_km": 6950.188122440706,
      "eccentricity": 0.00032381,
      "inclination_deg": 70.0012,
      "raan_deg": 171.5261,
      "arg_perigee_deg": 271.217,
      "mean_anomaly_deg": 88.8618,
      "mean_motion_rev_day": 14.98331542
    },
    {
      "epoch": "2026-03-31T12:06:00.455616Z",
      "apogee_km": 574.4382106236608,
      "perigee_km": 569.6424492624537,
      "latitude_deg": -7.492456271742255e-05,
      "longitude_deg": 158.95567141589558,
      "height_km": 574.4051906913274,
      "semi_major_axis_km": 6950.177329943057,
      "eccentricity": 0.00034501,
      "inclination_deg": 70.0005,
      "raan_deg": 169.3382,
      "arg_perigee_deg": 271.507,
      "mean_anomaly_deg": 88.5693,
      "mean_motion_rev_day": 14.98335032
    },
    {
      "epoch": "2026-04-01T08:55:45.546816Z",
      "apogee_km": 574.4528022155973,
      "perigee_km": 569.650221953746,
      "latitude_deg": -2.563602286165326e-05,
      "longitude_deg": -156.5255141074697,
      "height_km": 574.4066518931968,
      "semi_major_axis_km": 6950.188512084671,
      "eccentricity": 0.0003455,
      "inclination_deg": 70.0004,
      "raan_deg": 167.1503,
      "arg_perigee_deg": 271.7366,
      "mean_anomaly_deg": 88.3397,
      "mean_motion_rev_day": 14.98331416
    },
    {
      "epoch": "2026-04-02T08:57:46.389312Z",
      "apogee_km": 574.4624259995117,
      "perigee_km": 569.6280182494475,
      "latitude_deg": 4.051641772174547e-05,
      "longitude_deg": -160.54052306600724,
      "height_km": 574.4184076272105,
      "semi_major_axis_km": 6950.182222124479,
      "eccentricity": 0.00034779,
      "inclination_deg": 70.0003,
      "raan_deg": 164.6258,
      "arg_perigee_deg": 271.2976,
      "mean_anomaly_deg": 88.7785,
      "mean_motion_rev_day": 14.9833345
    },
    {
      "epoch": "2026-04-03T16:00:00.999936Z",
      "apogee_km": 574.5756460855373,
      "perigee_km": 569.6048435600396,
      "latitude_deg": 42.88744791371051,
      "longitude_deg": -110.28289829641764,
      "height_km": 579.7440391869193,
      "semi_major_axis_km": 6950.227244822788,
      "eccentricity": 0.0003576,
      "inclination_deg": 70.0012,
      "raan_deg": 161.3649,
      "arg_perigee_deg": 273.4459,
      "mean_anomaly_deg": 220.2952,
      "mean_motion_rev_day": 14.98318891
    },
    {
      "epoch": "2026-04-04T13:50:13.068960Z",
      "apogee_km": 574.4999578743764,
      "perigee_km": 569.6570477120304,
      "latitude_deg": -1.4335876546384497e-05,
      "longitude_deg": 118.6230304822744,
      "height_km": 574.6080254822132,
      "semi_major_axis_km": 6950.215502793203,
      "eccentricity": 0.0003484,
      "inclination_deg": 70.0002,
      "raan_deg": 159.072,
      "arg_perigee_deg": 267.5956,
      "mean_anomaly_deg": 92.4804,
      "mean_motion_rev_day": 14.98322688
    },
    {
      "epoch": "2026-04-05T13:52:13.806048Z",
      "apogee_km": 574.4910692963958,
      "perigee_km": 569.6342697673263,
      "latitude_deg": 3.4340260581498585e-05,
      "longitude_deg": 114.60695312807488,
      "height_km": 574.472413700198,
      "semi_major_axis_km": 6950.199669531861,
      "eccentricity": 0.0003494,
      "inclination_deg": 69.9997,
      "raan_deg": 156.546,
      "arg_perigee_deg": 270.4283,
      "mean_anomaly_deg": 89.6476,
      "mean_motion_rev_day": 14.98327808
    },
    {
      "epoch": "2026-04-06T05:53:34.246464Z",
      "apogee_km": 574.570934503332,
      "perigee_km": 569.5581711353761,
      "latitude_deg": 1.8647086619915606e-05,
      "longitude_deg": -128.06913662747098,
      "height_km": 574.4587699676566,
      "semi_major_axis_km": 6950.201552819354,
      "eccentricity": 0.00036062,
      "inclination_deg": 69.9998,
      "raan_deg": 154.8631,
      "arg_perigee_deg": 270.7724,
      "mean_anomaly_deg": 89.3022,
      "mean_motion_rev_day": 14.98327199
    },
    {
      "epoch": "2026-04-07T00:00:00.999648Z",
      "apogee_km": 574.7057413834027,
      "perigee_km": 569.5543424572734,
      "latitude_deg": 63.095560557401235,
      "longitude_deg": 92.1646345257336,
      "height_km": 584.786921304828,
      "semi_major_axis_km": 6950.267041920338,
      "eccentricity": 0.00037059,
      "inclination_deg": 70.0005,
      "raan_deg": 152.9606,
      "arg_perigee_deg": 268.9211,
      "mean_anomaly_deg": 199.6422,
      "mean_motion_rev_day": 14.98306022
    },
    {
      "epoch": "2026-04-08T10:46:00.529536Z",
      "apogee_km": 574.4518480610895,
      "perigee_km": 569.6770596622864,
      "latitude_deg": 5.7305687288125284e-05,
      "longitude_deg": 151.09590168989936,
      "height_km": 574.4950128736645,
      "semi_major_axis_km": 6950.201453861688,
      "eccentricity": 0.0003435,
      "inclination_deg": 70.0001,
      "raan_deg": 149.3091,
      "arg_perigee_deg": 269.9355,
      "mean_anomaly_deg": 90.1411,
      "mean_motion_rev_day": 14.98327231
    },
    {
      "epoch": "2026-04-09T20:24:49.860576Z",
      "apogee_km": 574.4378022117435,
      "perigee_km": 569.6949834164861,
      "latitude_deg": -7.239883471887336e-06,
      "longitude_deg": 1.4741934653556317,
      "height_km": 574.4539620187876,
      "semi_major_axis_km": 6950.2033928141145,
      "eccentricity": 0.0003412,
      "inclination_deg": 70.0002,
      "raan_deg": 145.7748,
      "arg_perigee_deg": 270.9734,
      "mean_anomaly_deg": 89.1034,
      "mean_motion_rev_day": 14.98326604
    },
    {
      "epoch": "2026-04-10T04:25:29.995680Z",
      "apogee_km": 574.5716342601809,
      "perigee_km": 569.559704111377,
      "latitude_deg": 1.5447542216619876e-05,
      "longitude_deg": -119.86463498038661,
      "height_km": 574.4900398171588,
      "semi_major_axis_km": 6950.202669185778,
      "eccentricity": 0.00036056,
      "inclination_deg": 69.9992,
      "raan_deg": 144.9322,
      "arg_perigee_deg": 270.0822,
      "mean_anomaly_deg": 89.9924,
      "mean_motion_rev_day": 14.98326838
    },
    {
      "epoch": "2026-04-11T20:28:51.409056Z",
      "apogee_km": 574.5789285552082,
      "perigee_km": 569.5205826344873,
      "latitude_deg": -1.1613208691996647e-06,
      "longitude_deg": -6.55670600361525,
      "height_km": 574.474050505865,
      "semi_major_axis_km": 6950.186755594847,
      "eccentricity": 0.0003639,
      "inclination_deg": 69.9992,
      "raan_deg": 140.7244,
      "arg_perigee_deg": 270.084,
      "mean_anomaly_deg": 89.9902,
      "mean_motion_rev_day": 14.98331984
    },
    {
      "epoch": "2026-04-13T01:19:16.465152Z",
      "apogee_km": 574.3717450350614,
      "perigee_km": 569.7106775194497,
      "latitude_deg": -4.614301275303781e-06,
      "longitude_deg": -83.3769371207661,
      "height_km": 574.5540675332595,
      "semi_major_axis_km": 6950.178211277255,
      "eccentricity": 0.00033532,
      "inclination_deg": 70.0005,
      "raan_deg": 137.693,
      "arg_perigee_deg": 267.9096,
      "mean_anomaly_deg": 92.1679,
      "mean_motion_rev_day": 14.98334747
    },
    {
      "epoch": "2026-04-14T18:58:45.553728Z",
      "apogee_km": 574.4370422486309,
      "perigee_km": 569.546931493468,
      "latitude_deg": -5.054944183257304e-05,
      "longitude_deg": 5.664309041369087,
      "height_km": 574.1371977157289,
      "semi_major_axis_km": 6950.128986871049,
      "eccentricity": 0.0003518,
      "inclination_deg": 70.0002,
      "raan_deg": 133.3163,
      "arg_perigee_deg": 276.6398,
      "mean_anomaly_deg": 83.436,
      "mean_motion_rev_day": 14.98350665
    },
    {
      "epoch": "2026-04-15T09:23:58.404480Z",
      "apogee_km": 574.6217159268917,
      "perigee_km": 569.4867756306858,
      "latitude_deg": 2.8934269349849392e-05,
      "longitude_deg": 147.25547605124913,
      "height_km": 574.4845060848616,
      "semi_major_axis_km": 6950.1912457787885,
      "eccentricity": 0.00036941,
      "inclination_deg": 69.9986,
      "raan_deg": 131.8032,
      "arg_perigee_deg": 269.9497,
      "mean_anomaly_deg": 90.1239,
      "mean_motion_rev_day": 14.98330532
    }
  ]
}